*******************************************************************************
 Revised : Jul 31, 2013                  Sun                                 10

 PHYSICAL PROPERTIES (revised Jan 16, 2014):
  GM (10^11 km^3/s^2)   = 1.3271244004193938  Mass (10^30 kg)   ~ 1.988544
  Radius (photosphere)  = 6.963(10^5) km  Angular diam at 1 AU  = 1919.3"
  Solar Radius (IAU)    = 6.955(10^5) km  Mean density          = 1.408 g/cm^3
  Surface gravity       =  274.0 m/s^2    Moment of inertia     = 0.059
  Escape velocity       =  617.7 km/s     Adopted sidereal per  = 25.38 d
  Pole (RA,DEC in deg.) =  286.13,63.87   Obliquity to ecliptic = 7 deg 15'        
  Solar constant (1 AU) = 1367.6 W/m^2    Solar lumin.(erg/s)   =  3.846(10^33)
  Mass-energy conv rate = 4.3(10^12 gm/s) Effective temp (K)    =  5778
  Surf. temp (photosphr)= 6600 K (bottom) Surf. temp (photosphr)=  4400 K (top)
  Photospheric depth    = ~400 km         Chromospheric depth   = ~2500 km
  Sunspot cycle         = 11.4 yr         Cycle 22 sunspot min. =  1991 A.D.

  Motn. rel to nrby strs= apex : RA=271 deg; DEC=+30 deg
                          speed: 19.4 km/s = 0.0112 AU/day
  Motn. rel to 2.73K BB = apex : l=264.7+-0.8; b=48.2+-0.5
                          speed: 369 +-11 km/s
*******************************************************************************
 
 
*******************************************************************************
Ephemeris / WWW_USER Fri Jul 22 15:15:51 2016 Pasadena, USA      / Horizons    
*******************************************************************************
Target body name: Sun (10)                        {source: DE431mx}
Center body name: Earth (399)                     {source: DE431mx}
Center-site name: GEOCENTRIC
*******************************************************************************
Start time      : A.D. 2016-Jul-26 00:00:00.0000 UT      
Stop  time      : A.D. 2016-Jul-27 06:00:00.0000 UT      
Step-size       : 1 minutes
*******************************************************************************
Target pole/equ : IAU_SUN                         {East-longitude +}
Target radii    : 696000.0 x 696000.0 x 696000.0 k{Equator, meridian, pole}    
Center geodetic : 0.00000000,0.00000000,0.0000000 {E-lon(deg),Lat(deg),Alt(km)}
Center cylindric: 0.00000000,0.00000000,0.0000000 {E-lon(deg),Dxy(km),Dz(km)}
Center pole/equ : High-precision EOP model        {East-longitude +}
Center radii    : 6378.1 x 6378.1 x 6356.8 km     {Equator, meridian, pole}    
Target primary  : Sun
Vis. interferer : MOON (R_eq= 1737.400) km        {source: DE431mx}
Rel. light bend : Sun, EARTH                      {source: DE431mx}
Rel. lght bnd GM: 1.3271E+11, 3.9860E+05 km^3/s^2                              
Atmos refraction: NO (AIRLESS)
RA format       : DEG
Time format     : BOTH
EOP file        : eop.160722.p161013                                           
EOP coverage    : DATA-BASED 1962-JAN-20 TO 2016-JUL-22. PREDICTS-> 2016-OCT-12
Units conversion: 1 au= 149597870.700 km, c= 299792.458 km/s, 1 day= 86400.0 s 
Table cut-offs 1: Elevation (-90.0deg=NO ),Airmass (>38.000=NO), Daylight (NO )
Table cut-offs 2: Solar Elongation (  0.0,180.0=NO ),Local Hour Angle( 0.0=NO )
**************************************************************************************
 Date__(UT)__HR:MN:SC.fff Date_________JDUT     R.A._(J2000.0)_DEC.   NP.ang   NP.dist
**************************************************************************************
$$SOE
 2016-Jul-26 12:20:00.000 2457596.013888889     126.02051  19.32197   8.7305    940.75
 2016-Jul-26 12:21:00.000 2457596.014583333     126.02120  19.32182   8.7308    940.75
 2016-Jul-26 12:22:00.000 2457596.015277778     126.02188  19.32166   8.7311    940.75
 2016-Jul-26 12:23:00.000 2457596.015972222     126.02257  19.32151   8.7313    940.75
 2016-Jul-26 12:24:00.000 2457596.016666667     126.02325  19.32135   8.7316    940.75
 2016-Jul-26 12:25:00.000 2457596.017361111     126.02393  19.32120   8.7319    940.75
 2016-Jul-26 12:26:00.000 2457596.018055555     126.02462  19.32104   8.7322    940.75
 2016-Jul-26 12:27:00.000 2457596.018750000     126.02530  19.32089   8.7325    940.75
 2016-Jul-26 12:28:00.000 2457596.019444444     126.02598  19.32073   8.7328    940.75
 2016-Jul-26 12:29:00.000 2457596.020138889     126.02667  19.32058   8.7331    940.75
 2016-Jul-26 12:30:00.000 2457596.020833333     126.02735  19.32042   8.7334    940.75
 2016-Jul-26 12:31:00.000 2457596.021527778     126.02803  19.32027   8.7336    940.75
 2016-Jul-26 12:32:00.000 2457596.022222222     126.02872  19.32011   8.7339    940.75
 2016-Jul-26 12:33:00.000 2457596.022916667     126.02940  19.31996   8.7342    940.75
 2016-Jul-26 12:34:00.000 2457596.023611111     126.03008  19.31980   8.7345    940.75
 2016-Jul-26 12:35:00.000 2457596.024305556     126.03077  19.31965   8.7348    940.75
 2016-Jul-26 12:36:00.000 2457596.025000000     126.03145  19.31949   8.7351    940.75
 2016-Jul-26 12:37:00.000 2457596.025694444     126.03214  19.31933   8.7354    940.75
 2016-Jul-26 12:38:00.000 2457596.026388889     126.03282  19.31918   8.7357    940.75
 2016-Jul-26 12:39:00.000 2457596.027083333     126.03350  19.31902   8.7359    940.75
 2016-Jul-26 12:40:00.000 2457596.027777778     126.03419  19.31887   8.7362    940.75
 2016-Jul-26 12:41:00.000 2457596.028472222     126.03487  19.31871   8.7365    940.75
 2016-Jul-26 12:42:00.000 2457596.029166667     126.03555  19.31856   8.7368    940.75
 2016-Jul-26 12:43:00.000 2457596.029861111     126.03624  19.31840   8.7371    940.75
 2016-Jul-26 12:44:00.000 2457596.030555556     126.03692  19.31825   8.7374    940.75
 2016-Jul-26 12:45:00.000 2457596.031250000     126.03760  19.31809   8.7377    940.75
 2016-Jul-26 12:46:00.000 2457596.031944444     126.03829  19.31794   8.7380    940.75
 2016-Jul-26 12:47:00.000 2457596.032638889     126.03897  19.31778   8.7382    940.75
 2016-Jul-26 12:48:00.000 2457596.033333333     126.03965  19.31763   8.7385    940.75
 2016-Jul-26 12:49:00.000 2457596.034027778     126.04034  19.31747   8.7388    940.75
 2016-Jul-26 12:50:00.000 2457596.034722222     126.04102  19.31732   8.7391    940.75
 2016-Jul-26 12:51:00.000 2457596.035416667     126.04170  19.31716   8.7394    940.75
 2016-Jul-26 12:52:00.000 2457596.036111111     126.04239  19.31701   8.7397    940.75
 2016-Jul-26 12:53:00.000 2457596.036805556     126.04307  19.31685   8.7400    940.75
 2016-Jul-26 12:54:00.000 2457596.037500000     126.04376  19.31670   8.7403    940.75
 2016-Jul-26 12:55:00.000 2457596.038194444     126.04444  19.31654   8.7405    940.75
 2016-Jul-26 12:56:00.000 2457596.038888889     126.04512  19.31638   8.7408    940.75
 2016-Jul-26 12:57:00.000 2457596.039583333     126.04581  19.31623   8.7411    940.75
 2016-Jul-26 12:58:00.000 2457596.040277778     126.04649  19.31607   8.7414    940.75
 2016-Jul-26 12:59:00.000 2457596.040972222     126.04717  19.31592   8.7417    940.75
 2016-Jul-26 13:00:00.000 2457596.041666667     126.04786  19.31576   8.7420    940.75
 2016-Jul-26 13:01:00.000 2457596.042361111     126.04854  19.31561   8.7423    940.75
 2016-Jul-26 13:02:00.000 2457596.043055556     126.04922  19.31545   8.7426    940.75
 2016-Jul-26 13:03:00.000 2457596.043750000     126.04991  19.31530   8.7428    940.75
 2016-Jul-26 13:04:00.000 2457596.044444445     126.05059  19.31514   8.7431    940.75
 2016-Jul-26 13:05:00.000 2457596.045138889     126.05127  19.31499   8.7434    940.75
 2016-Jul-26 13:06:00.000 2457596.045833333     126.05196  19.31483   8.7437    940.75
 2016-Jul-26 13:07:00.000 2457596.046527778     126.05264  19.31468   8.7440    940.75
 2016-Jul-26 13:08:00.000 2457596.047222222     126.05332  19.31452   8.7443    940.75
 2016-Jul-26 13:09:00.000 2457596.047916667     126.05401  19.31437   8.7446    940.75
 2016-Jul-26 13:10:00.000 2457596.048611111     126.05469  19.31421   8.7449    940.75
 2016-Jul-26 13:11:00.000 2457596.049305555     126.05538  19.31405   8.7452    940.75
 2016-Jul-26 13:12:00.000 2457596.050000000     126.05606  19.31390   8.7454    940.75
 2016-Jul-26 13:13:00.000 2457596.050694444     126.05674  19.31374   8.7457    940.75
 2016-Jul-26 13:14:00.000 2457596.051388889     126.05743  19.31359   8.7460    940.75
 2016-Jul-26 13:15:00.000 2457596.052083333     126.05811  19.31343   8.7463    940.75
 2016-Jul-26 13:16:00.000 2457596.052777778     126.05879  19.31328   8.7466    940.75
 2016-Jul-26 13:17:00.000 2457596.053472222     126.05948  19.31312   8.7469    940.75
 2016-Jul-26 13:18:00.000 2457596.054166667     126.06016  19.31297   8.7472    940.75
 2016-Jul-26 13:19:00.000 2457596.054861111     126.06084  19.31281   8.7475    940.75
 2016-Jul-26 13:20:00.000 2457596.055555556     126.06153  19.31266   8.7477    940.75
 2016-Jul-26 13:21:00.000 2457596.056250000     126.06221  19.31250   8.7480    940.75
 2016-Jul-26 13:22:00.000 2457596.056944444     126.06289  19.31235   8.7483    940.75
 2016-Jul-26 13:23:00.000 2457596.057638889     126.06358  19.31219   8.7486    940.75
 2016-Jul-26 13:24:00.000 2457596.058333333     126.06426  19.31204   8.7489    940.75
 2016-Jul-26 13:25:00.000 2457596.059027778     126.06494  19.31188   8.7492    940.75
 2016-Jul-26 13:26:00.000 2457596.059722222     126.06563  19.31172   8.7495    940.75
 2016-Jul-26 13:27:00.000 2457596.060416667     126.06631  19.31157   8.7498    940.75
 2016-Jul-26 13:28:00.000 2457596.061111111     126.06699  19.31141   8.7500    940.75
 2016-Jul-26 13:29:00.000 2457596.061805556     126.06768  19.31126   8.7503    940.75
 2016-Jul-26 13:30:00.000 2457596.062500000     126.06836  19.31110   8.7506    940.75
 2016-Jul-26 13:31:00.000 2457596.063194444     126.06905  19.31095   8.7509    940.75
 2016-Jul-26 13:32:00.000 2457596.063888889     126.06973  19.31079   8.7512    940.75
 2016-Jul-26 13:33:00.000 2457596.064583333     126.07041  19.31064   8.7515    940.75
